{
  "type": "FeatureCollection",
  "features": [
    {
      "type": "Feature",
      "properties": {
        "norad_id": 31288,
        "name": "FENGYUN 1C DEB",
        "group": "fengyun-1c-debris",
        "lat": 11.778542222298892,
        "lon": -32.67400524936425,
        "alt_km": 590.723446708339,
        "timestamp": "2025-12-13T08:49:15.968006+00:00",
        "meta_object_name": "FENGYUN 1C DEB",
        "meta_object_id": "1999-025BNW",
        "meta_epoch": "2025-12-12T09:44:03.823584",
        "meta_mean_motion": 14.9560691,
        "meta_eccentricity": 0.00228105,
        "meta_inclination": 98.7459,
        "meta_ra_of_asc_node": 144.4136,
        "meta_arg_of_pericenter": 297.572,
        "meta_mean_anomaly": 94.1355,
        "meta_ephemeris_type": 0,
        "meta_classification_type": "U",
        "meta_norad_cat_id": 31288,
        "meta_element_set_no": 999,
        "meta_rev_at_epoch": 97552,
        "meta_bstar": 0.0079382823,
        "meta_mean_motion_dot": 0.00089623,
        "meta_mean_motion_ddot": 0,
        "tle_line1": "1 31288U 99025BNW 25346.40559981  .00089623  00000+0  79383-2 0  9997",
        "tle_line2": "2 31288  98.7459 144.4136 0022810 297.5720  94.1355 14.95606910975520"
      },
      "geometry": {
        "type": "Point",
        "coordinates": [
          -32.67400524936425,
          11.778542222298892
        ]
      }
    },
    {
      "type": "Feature",
      "properties": {
        "norad_id": 31293,
        "name": "FENGYUN 1C DEB",
        "group": "fengyun-1c-debris",
        "lat": -54.86655575104742,
        "lon": 7.264132994082871,
        "alt_km": 751.9003805293405,
        "timestamp": "2025-12-13T08:49:15.968019+00:00",
        "meta_object_name": "FENGYUN 1C DEB",
        "meta_object_id": "1999-025BPB",
        "meta_epoch": "2025-12-11T06:43:51.182400",
        "meta_mean_motion": 14.30811364,
        "meta_eccentricity": 0.01253999,
        "meta_inclination": 98.4229,
        "meta_ra_of_asc_node": 353.086,
        "meta_arg_of_pericenter": 249.2429,
        "meta_mean_anomaly": 109.528,
        "meta_ephemeris_type": 0,
        "meta_classification_type": "U",
        "meta_norad_cat_id": 31293,
        "meta_element_set_no": 999,
        "meta_rev_at_epoch": 65223,
        "meta_bstar": 0.00013028256,
        "meta_mean_motion_dot": 3.27e-06,
        "meta_mean_motion_ddot": 0,
        "tle_line1": "1 31293U 99025BPB 25345.28045350  .00000327  00000+0  13028-3 0  9997",
        "tle_line2": "2 31293  98.4229 353.0860 0125399 249.2429 109.5280 14.30811364652234"
      },
      "geometry": {
        "type": "Point",
        "coordinates": [
          7.264132994082871,
          -54.86655575104742
        ]
      }
    },
    {
      "type": "Feature",
      "properties": {
        "norad_id": 31294,
        "name": "FENGYUN 1C DEB",
        "group": "fengyun-1c-debris",
        "lat": -28.44465033098318,
        "lon": -12.37659947631036,
        "alt_km": 775.7539289547367,
        "timestamp": "2025-12-13T08:49:15.968031+00:00",
        "meta_object_name": "FENGYUN 1C DEB",
        "meta_object_id": "1999-025BPC",
        "meta_epoch": "2025-12-12T19:22:50.881440",
        "meta_mean_motion": 14.15312549,
        "meta_eccentricity": 0.00996652,
        "meta_inclination": 98.5432,
        "meta_ra_of_asc_node": 342.4162,
        "meta_arg_of_pericenter": 340.9361,
        "meta_mean_anomaly": 18.8094,
        "meta_ephemeris_type": 0,
        "meta_classification_type": "U",
        "meta_norad_cat_id": 31294,
        "meta_element_set_no": 999,
        "meta_rev_at_epoch": 96854,
        "meta_bstar": 0.0007782727,
        "meta_mean_motion_dot": 1.548e-05,
        "meta_mean_motion_ddot": 0,
        "tle_line1": "1 31294U 99025BPC 25346.80753335  .00001548  00000+0  77827-3 0  9999",
        "tle_line2": "2 31294  98.5432 342.4162 0099665 340.9361  18.8094 14.15312549968542"
      },
      "geometry": {
        "type": "Point",
        "coordinates": [
          -12.37659947631036,
          -28.44465033098318
        ]
      }
    },
    {
      "type": "Feature",
      "properties": {
        "norad_id": 31295,
        "name": "FENGYUN 1C DEB",
        "group": "fengyun-1c-debris",
        "lat": -55.356164296941905,
        "lon": -19.978351670826488,
        "alt_km": 857.3534088771794,
        "timestamp": "2025-12-13T08:49:15.968042+00:00",
        "meta_object_name": "FENGYUN 1C DEB",
        "meta_object_id": "1999-025BPD",
        "meta_epoch": "2025-12-12T23:05:35.655072",
        "meta_mean_motion": 13.96833201,
        "meta_eccentricity": 0.00767674,
        "meta_inclination": 98.3168,
        "meta_ra_of_asc_node": 171.8764,
        "meta_arg_of_pericenter": 250.6384,
        "meta_mean_anomaly": 108.647,
        "meta_ephemeris_type": 0,
        "meta_classification_type": "U",
        "meta_norad_cat_id": 31295,
        "meta_element_set_no": 999,
        "meta_rev_at_epoch": 95506,
        "meta_bstar": 0.00020397275,
        "meta_mean_motion_dot": 2.52e-06,
        "meta_mean_motion_ddot": 0,
        "tle_line1": "1 31295U 99025BPD 25346.96221823  .00000252  00000+0  20397-3 0  9990",
        "tle_line2": "2 31295  98.3168 171.8764 0076767 250.6384 108.6470 13.96833201955069"
      },
      "geometry": {
        "type": "Point",
        "coordinates": [
          -19.978351670826488,
          -55.356164296941905
        ]
      }
    },
    {
      "type": "Feature",
      "properties": {
        "norad_id": 31296,
        "name": "FENGYUN 1C DEB",
        "group": "fengyun-1c-debris",
        "lat": -27.991449365215217,
        "lon": 77.4685652678199,
        "alt_km": 648.2990476586729,
        "timestamp": "2025-12-13T08:49:15.968052+00:00",
        "meta_object_name": "FENGYUN 1C DEB",
        "meta_object_id": "1999-025BPE",
        "meta_epoch": "2025-12-12T17:11:21.238656",
        "meta_mean_motion": 14.71461015,
        "meta_eccentricity": 0.00196118,
        "meta_inclination": 99.0659,
        "meta_ra_of_asc_node": 261.6123,
        "meta_arg_of_pericenter": 215.3966,
        "meta_mean_anomaly": 144.5937,
        "meta_ephemeris_type": 0,
        "meta_classification_type": "U",
        "meta_norad_cat_id": 31296,
        "meta_element_set_no": 999,
        "meta_rev_at_epoch": 97349,
        "meta_bstar": 0.0063568237,
        "meta_mean_motion_dot": 0.00039695,
        "meta_mean_motion_ddot": 0,
        "tle_line1": "1 31296U 99025BPE 25346.71621804  .00039695  00000+0  63568-2 0  9996",
        "tle_line2": "2 31296  99.0659 261.6123 0019611 215.3966 144.5937 14.71461015973497"
      },
      "geometry": {
        "type": "Point",
        "coordinates": [
          77.4685652678199,
          -27.991449365215217
        ]
      }
    },
    {
      "type": "Feature",
      "properties": {
        "norad_id": 31297,
        "name": "FENGYUN 1C DEB",
        "group": "fengyun-1c-debris",
        "lat": -66.45094433959865,
        "lon": 145.46137453383176,
        "alt_km": 807.4725484423388,
        "timestamp": "2025-12-13T08:49:15.968064+00:00",
        "meta_object_name": "FENGYUN 1C DEB",
        "meta_object_id": "1999-025BPF",
        "meta_epoch": "2025-12-12T20:38:42.469728",
        "meta_mean_motion": 14.57080378,
        "meta_eccentricity": 0.01396723,
        "meta_inclination": 98.934,
        "meta_ra_of_asc_node": 123.7597,
        "meta_arg_of_pericenter": 122.4907,
        "meta_mean_anomaly": 29.5137,
        "meta_ephemeris_type": 0,
        "meta_classification_type": "U",
        "meta_norad_cat_id": 31297,
        "meta_element_set_no": 999,
        "meta_rev_at_epoch": 99317,
        "meta_bstar": 0.00069051516,
        "meta_mean_motion_dot": 3.496e-05,
        "meta_mean_motion_ddot": 0,
        "tle_line1": "1 31297U 99025BPF 25346.86021377  .00003496  00000+0  69052-3 0  9997",
        "tle_line2": "2 31297  98.9340 123.7597 0139672 122.4907  29.5137 14.57080378993173"
      },
      "geometry": {
        "type": "Point",
        "coordinates": [
          145.46137453383176,
          -66.45094433959865
        ]
      }
    },
    {
      "type": "Feature",
      "properties": {
        "norad_id": 31300,
        "name": "FENGYUN 1C DEB",
        "group": "fengyun-1c-debris",
        "lat": 39.60379752913337,
        "lon": -105.23977976526427,
        "alt_km": 831.7901600015639,
        "timestamp": "2025-12-13T08:49:15.968075+00:00",
        "meta_object_name": "FENGYUN 1C DEB",
        "meta_object_id": "1999-025BPJ",
        "meta_epoch": "2025-12-12T17:36:24.050880",
        "meta_mean_motion": 14.15128199,
        "meta_eccentricity": 0.00603591,
        "meta_inclination": 99.5422,
        "meta_ra_of_asc_node": 66.0828,
        "meta_arg_of_pericenter": 60.2329,
        "meta_mean_anomaly": 90.9338,
        "meta_ephemeris_type": 0,
        "meta_classification_type": "U",
        "meta_norad_cat_id": 31300,
        "meta_element_set_no": 999,
        "meta_rev_at_epoch": 96174,
        "meta_bstar": 0.0019062496,
        "meta_mean_motion_dot": 3.716e-05,
        "meta_mean_motion_ddot": 0,
        "tle_line1": "1 31300U 99025BPJ 25346.73361170  .00003716  00000+0  19062-2 0  9996",
        "tle_line2": "2 31300  99.5422  66.0828 0060359  60.2329  90.9338 14.15128199961745"
      },
      "geometry": {
        "type": "Point",
        "coordinates": [
          -105.23977976526427,
          39.60379752913337
        ]
      }
    }
  ]
}